#dP2025  1 30  0  0  0.00000000      97 __u+U IGS20 FIT  IAC
## 2351 345600.00000000   900.00000000 60705 0.0000000000000
+  118   C06C07C08C09C10C11C12C13C14C16C19C20C21C22C23C24C25
+        C26C27C28C29C30C32C33C34C35C36C37C38C39C40C41C42C43
+        C44C45E02E03E04E05E06E07E08E09E10E11E13E14E15E18E19
+        E21E24E25E26E27E29E30E31E33E34E36G01G02G03G04G05G06
+        G07G08G09G10G11G12G13G14G15G16G17G18G19G20G21G22G23
+        G24G25G26G27G28G29G30G31G32J02J03J04R01R02R03R04R05
+        R06R07R08R09R11R12R14R15R16R17R18R19R20R21R22R24  0
++         7  7  7  7  7  7  6  7  6  7  5  5  6  6  5  5  5
++         5  6  5  6  6  6  5  6  6  6  6  6  6  6  6  6  6
++         6  6  4  4  4  4  4  4  4  4  4  4  4  4  4  4  4
++         4  4  3  4  4  4  4  4  4  4  4  3  3  3  3  3  6
++         3  4  3  3  3  3  3  3  4  3  3  3  3  3  3  3  3
++         3  3  3  3  3  3  3  3  3 10 11 13  7  6  6  6  7
++         6  9  9  6  6  6  7  6  7  7  6  7  7  6  6  7  0
%c M  cc GPS ccc cccc cccc cccc cccc ccccc ccccc ccccc ccccc
%c cc cc ccc ccc cccc cccc cccc cccc ccccc ccccc ccccc ccccc
%f  1.2500000  1.025000000  0.00000000000  0.000000000000000
%f  0.0000000  0.000000000  0.00000000000  0.000000000000000
%i    0    0    0    0      0      0      0      0         0
%i    0    0    0    0      0      0      0      0         0
/* INFORMATION & ANALYSIS CENTER (IAC)            FINAL DATA
/* S/V CLOCKS ARE ALIGNED TO GNSS TIME                      
/* G:C1WC2W R:C1PC2P E:C1XC5X C:C2IC6I J:C1CC2S             
/* PCV:IGS20_2350 OL/AL:FES2004  NONE     YN ORB:CoN CLK:CoN
*  2025 01 30 21 45  0.00000000
PC06  -2594.284703  37095.351896  20262.493103    730.962575
PC07 -13054.929595  26365.894840 -30140.872389    218.451429
PC08 -17382.106798  35140.666377  15164.816340    100.374380
PC09   2310.655524  40571.197572  12997.935924   -859.454198
PC10  -4812.667709  27489.563239 -31283.959414   -422.848824
PC11  13257.952480  22540.585686  -9677.900718    361.801460
PC12  -3892.911167  16797.884249 -21902.624970   -205.173075
PC13 -12885.913028  35638.241883  18382.846773     59.015876
PC14   6394.118189  14286.318890  23111.934368   -719.444548
PC16  -3691.325890  36133.880522  22052.770109   -103.202528
PC19 -16217.112829  -9484.931499 -20617.951485   -962.120894
PC20   2397.750351 -16388.950789 -22441.985397   -866.761376
PC21 -21665.244629  14000.091256  10698.410754   -903.786724
PC22 -26860.583047   3284.115650  -6875.147657    244.805415
PC23  16718.033935   -537.549655 -22344.578613   -947.078772
PC24  -3908.208565  27441.113532  -3142.809272    672.575502
PC25   9619.924515  18802.237668 -18246.717253    632.003321
PC26 -13893.091992  20200.021515  13274.097719   -413.198459
PC27  12555.505423 -10207.646906  22718.321764    430.663850
PC28  21936.687838   4447.382626  16675.662584    337.523533
PC29 -19939.738727 -19388.175249   2254.643539    396.139418
PC30  -4377.566774 -20775.566328  18089.393650     93.299115
PC32  21611.476027 -14116.160895 -10566.334711   -902.200528
PC33  16157.710563   9489.062935  20677.834065   -949.797335
PC34   6001.541565  21287.300340 -17043.267119    618.797044
PC35 -22404.735232  -4327.139796 -16052.000582    138.981441
PC36  -9360.091582 -18792.751938  18402.125229    258.942826
PC37  14544.333829 -19521.968114 -13668.796505   -909.423676
PC38 -22362.031689  35368.139756   4647.013141    205.905512
PC39  -6814.431894  31747.576301  27093.169714    -10.837086
PC40 -18012.352738  19594.279843 -32767.585993   -117.977316
PC41  26637.035355  -2621.329463   7915.817623   -882.609249
PC42  -4610.598546  16775.778173  21871.150188   -582.871656
PC43  19571.597504  19697.612350  -2924.168681     99.956514
PC44 -12323.378863  10753.204694 -22624.222566    726.448872
PC45 -16484.538928   -234.913193  22500.195955   -222.427818
PE02   9499.865286 -23006.254773  16021.155068    194.014938
PE03   -124.870906 -17512.391930 -23868.333249   -169.971825
PE04  20633.195200  16588.042513  13245.329692   -145.683693
PE05  20027.860184  -8114.974612 -20224.994402   4823.532270
PE06  26623.369248  12191.443199   4346.802869    -76.677773
PE07 -28585.500716  -6261.906986   4490.432496   -166.428384
PE08 -20111.846914 -16745.667130 -13839.452812   -409.145377
PE09  28559.529208   6352.518274  -4449.323629   -757.907508
PE10  15604.240914  16882.249431  18648.482838   -686.746235
PE11  16759.490789   5583.133159  23751.835028   -652.075189
PE13 -16699.417818  -6200.354352 -23626.744011    -29.801267
PE14  -9104.357628 -19155.370637  18460.792672    658.785621
PE15 -12016.481385 -24773.584338 -10834.046736   -154.198588
PE18  -5001.440532  18014.246728 -21825.022045   1057.777849
PE19  -1815.429178  16935.163060  24217.456654   1310.824609
PE21 -22803.779614  18826.677568   1235.629775   -643.386926
PE24  23125.485846  -3275.146167 -18222.767108  -1242.031244
PE25  23000.421870 -18562.055274  -1708.681025     13.792096
PE26 -11446.194127  16069.656283 -22056.851792   -138.841597
PE27 -23055.083255   3339.042618  18245.652958   -570.103330
PE29 -19788.238768   8440.046359  20324.343231    -66.530392
PE30  -9854.472455 -13837.219848  24221.326575  -1191.856942
PE31   9715.326558  13899.435604 -24263.120671    -52.655662
PE33    100.527341  28365.249578  -8454.744142     16.432905
PE34   -398.821075 -28467.650365   8106.861360   -160.768546
PE36  11562.367580 -15550.682004  22379.913250   -346.456487
PG01  15434.025200   -224.794718  21621.262082     88.259204
PG02  16492.441745   1779.606016  21286.007881   -254.982534
PG03  20943.623655  -9248.721786  13196.671102    655.577916
PG04  24507.789632   -639.045955 -10390.110285    519.979773
PG05 -15614.632560  -4007.743979 -21295.217827   -200.561198
PG06  -5633.894901 -25793.377732   2247.434334   -154.987478
PG07   9121.841299 -15837.966095 -18569.510082    -13.419195
PG08  26171.257014   5797.226126   -836.779560    471.268349
PG09  18387.816469  -8468.725798 -17320.886261    549.031753
PG10  -6258.996799  20954.101855  15067.889858   -298.750956
PG11 -11991.986805 -21850.823348  -9216.022931   -749.775910
PG12 -21287.963265   5853.155366  14443.876622   -567.483559
PG13 -21534.805269 -14015.385511  -7445.509120    695.065851
PG14   9616.379397 -21744.625572  11630.640073    589.777721
PG15 -26502.754514  -2638.120933   -885.628595    257.820766
PG16  11512.560549  10350.373490 -21960.961448    -64.885169
PG17   3580.231646 -14894.718044  22096.753816    449.381632
PG18  -7696.356002  17863.849501 -17949.353555   -655.632572
PG19  -8286.339519 -16785.490422  18873.876653    592.414565
PG20  -7257.236844 -15254.940934 -20436.071544    366.667086
PG21  17648.644352   9835.318230  18150.571061    101.815229
PG22   3581.443557 -19836.644205  17831.307124    -94.872530
PG23 -16731.426832  20390.310420   1781.773236    414.193214
PG24 -17236.193704  -4174.164812  19414.421463   -457.988908
PG25 -19666.307840  16999.114285   4348.680132    495.870738
PG26   3642.345063  18248.559510 -19002.313964    -70.176565
PG27  20681.028777  12907.486604 -11372.981822    -32.290507
PG28   5437.863946  25660.557803   4160.743266   -548.320231
PG29 -19022.385187   6528.884858 -17458.674327   -542.294013
PG30    904.295337 -24120.421884 -10617.013841   -227.286547
PG31  10191.961431  23849.185794  -4996.428599   -216.667078
PG32   3168.234021  15891.566746  21315.834924   -531.488372
PJ02 -36589.993947  20039.693437  -1644.624824     -0.928980
PJ03 -19793.040062  25560.809925 -22389.781497     -0.362494
PJ04 -27111.397282  29652.369261  18324.099814     -0.015656
PR01 -11620.222120  11156.282101  19787.102766    113.049363
PR02   6801.108919   9805.380941  22603.331672    -37.931220
PR03  22187.709141   3175.187179  12288.296296    115.942397
PR04  24734.477094  -4573.219287  -4261.177867    274.969904
PR05  14280.813558 -10050.033491 -18589.384923    144.607869
PR06 -25030.610130   4257.393144   2581.510277   -131.268102
PR07 -22295.545714  -3017.508742 -11922.097577     99.860430
PR08 -24553.392072   5034.112909   4695.251046     -6.277475
PR09    146.644294 -20722.749069  14828.873465    235.153246
PR11 -13896.094681   9742.591764  19055.007918     -4.969437
PR12 -10883.490499  22959.873856   2188.075956     50.218252
PR14   9273.637935   6629.800014 -22815.719553     27.670504
PR15  14189.545614 -11358.267352 -17883.049127     71.667461
PR16  10853.582379 -22947.461498  -2312.676786     32.895619
PR17  17368.700171  15282.958649  10715.493075    162.042657
PR18  13381.740825   1793.988395  21672.977690    184.587818
PR19   4480.266214 -11359.079065  22399.022838   -307.413436
PR20 -10358.526768 -21918.825731   7873.075209   -125.178352
PR21 -17130.158071 -16372.780571  -9466.575074   -172.632689
PR22 -13007.814435   -573.356946 -21902.919178    -58.450880
PR24  11633.641712  21488.682954  -7280.546954    -90.390104
EOF
